NORAD_CAT_ID,OBJECT_NAME,OBJECT_TYPE,EPOCH,MEAN_MOTION,ECCENTRICITY,INCLINATION,RA_OF_ASC_NODE,ARG_OF_PERICENTER,MEAN_ANOMALY,BSTAR,MEAN_MOTION_DOT,MEAN_MOTION_DDOT,TLE_LINE0,TLE_LINE1,TLE_LINE2,SEMIMAJOR_AXIS,PERIOD,APOGEE,PERIGEE,DECAYED
52587.0,STARLINK-3867,PAYLOAD,2024-02-03 04:12:37,15.08845289,0.0001421,53.2179,315.5052,100.8976,259.2176,0.00011907,1.608e-05,0.0,0 STARLINK-3867,1 52587U 22051BD  24034.17543658  .00001608  00000-0  11907-3 0  9995,2 52587  53.2179 315.5052 0001421 100.8976 259.2176 15.08845289 96025,6917.864,95.437,540.712,538.746,0.0
52587.0,STARLINK-3867,PAYLOAD,2024-02-03 21:41:52,15.08845399,0.0002217,53.219,312.2325,136.9928,223.1238,-7.2733e-05,-1.446e-05,0.0,0 STARLINK-3867,1 52587U 22051BD  24034.90407966 -.00001446  00000-0 -72733-4 0  9994,2 52587  53.2190 312.2325 0002217 136.9928 223.1238 15.08845399 96139,6917.864,95.437,541.263,538.195,0.0
52587.0,STARLINK-3867,PAYLOAD,2024-02-04 04:03:24,15.08848433,0.0002079,53.2186,311.0425,132.3145,227.8023,-2.7497e-05,-7.26e-06,0.0,0 STARLINK-3867,1 52587U 22051BD  24035.16903549 -.00000726  00000-0 -27497-4 0  9998,2 52587  53.2186 311.0425 0002079 132.3145 227.8023 15.08848433 96178,6917.855,95.437,541.158,538.281,0.0
52587.0,STARLINK-3867,PAYLOAD,2024-02-04 21:32:40,15.08766673,0.0002256,53.2184,307.7694,117.7927,242.3294,0.0011101,0.00017388,0.0,0 STARLINK-3867,1 52587U 22051BD  24035.89769560  .00017388  00000-0  11101-2 0  9994,2 52587  53.2184 307.7694 0002256 117.7927 242.3294 15.08766673 96355,6918.105,95.442,541.53,538.409,0.0
52587.0,STARLINK-3867,PAYLOAD,2024-02-05 00:43:26,15.08812691,0.000168,53.2181,307.1745,116.6833,243.4332,0.0004928,7.558e-05,0.0,0 STARLINK-3867,1 52587U 22051BD  24036.03016661  .00007558  00000-0  49280-3 0  9996,2 52587  53.2181 307.1745 0001680 116.6833 243.4332 15.08812691 96376,6917.964,95.439,540.991,538.667,0.0
52587.0,STARLINK-3867,PAYLOAD,2024-02-05 22:58:49,15.0883938,0.0001579,53.2173,303.0125,103.0001,257.1167,5.1139e-05,5.26e-06,0.0,0 STARLINK-3867,1 52587U 22051BD  24036.95752208  .00000526  00000-0  51139-4 0  9996,2 52587  53.2173 303.0125 0001579 103.0001 257.1167 15.08839380 96448,6917.882,95.438,540.84,538.655,0.0
52587.0,STARLINK-3867,PAYLOAD,2024-02-06 00:34:12,15.08841663,0.0001449,53.218,302.7154,100.1663,259.9493,6.5733e-05,7.58e-06,0.0,0 STARLINK-3867,1 52587U 22051BD  24037.02376023  .00000758  00000-0  65733-4 0  9994,2 52587  53.2180 302.7154 0001449 100.1663 259.9493 15.08841663 96520,6917.875,95.437,540.743,538.738,0.0
52587.0,STARLINK-3867,PAYLOAD,2024-02-06 22:49:36,15.08842086,0.0001644,53.2177,298.5571,113.8179,246.2985,2.8676e-05,1.68e-06,0.0,0 STARLINK-3867,1 52587U 22051BD  24037.95112156  .00000168  00000-0  28676-4 0  9991,2 52587  53.2177 298.5571 0001644 113.8179 246.2985 15.08842086 96593,6917.874,95.437,540.876,538.602,0.0
52587.0,STARLINK-3867,PAYLOAD,2024-02-07 03:35:46,15.08845277,0.0001604,53.2174,297.6603,109.1997,250.9169,3.3831e-05,2.51e-06,0.0,0 STARLINK-3867,1 52587U 22051BD  24038.14983884  .00000251  00000-0  33831-4 0  9999,2 52587  53.2174 297.6603 0001604 109.1997 250.9169 15.08845277 96690,6917.864,95.437,540.839,538.62,0.0
52587.0,STARLINK-3867,PAYLOAD,2024-02-07 09:57:18,15.08845275,0.000141,53.2165,296.4707,73.5538,286.5609,8.222e-06,-1.57e-06,0.0,0 STARLINK-3867,1 52587U 22051BD  24038.41479965 -.00000157  00000-0  82220-5 0  9992,2 52587  53.2165 296.4707 0001410  73.5538 286.5609 15.08845275 96661,6917.864,95.437,540.705,538.754,0.0
52587.0,STARLINK-3867,PAYLOAD,2024-02-07 21:05:01,15.08836412,0.0002166,53.2169,294.3923,90.536,269.588,-3.7445e-05,-8.84e-06,0.0,0 STARLINK-3867,1 52587U 22051BD  24038.87849164 -.00000884  00000-0 -37445-4 0  9990,2 52587  53.2169 294.3923 0002166  90.5360 269.5880 15.08836412 96736,6917.891,95.438,541.255,538.258,0.0
52587.0,STARLINK-3867,PAYLOAD,2024-02-08 00:15:47,15.08836221,0.0001495,53.2169,293.8023,104.6205,255.4953,-4.4904e-05,-1.002e-05,0.0,0 STARLINK-3867,1 52587U 22051BD  24039.01097062 -.00001002  00000-0 -44904-4 0  9990,2 52587  53.2169 293.8023 0001495 104.6205 255.4953 15.08836221 96823,6917.892,95.438,540.791,538.723,0.0
52587.0,STARLINK-3867,PAYLOAD,2024-02-08 09:48:06,15.08833644,0.0001646,53.2173,292.0135,101.8401,258.2776,2.629e-05,1.3e-06,0.0,0 STARLINK-3867,1 52587U 22051BD  24039.40841316  .00000130  00000-0  26290-4 0  9999,2 52587  53.2173 292.0135 0001646 101.8401 258.2776 15.08833644 96817,6917.9,95.438,540.904,538.626,0.0
52587.0,STARLINK-3867,PAYLOAD,2024-02-08 22:31:11,15.08844007,0.0001402,53.217,289.6337,99.4367,260.6784,7.5803e-05,9.19e-06,0.0,0 STARLINK-3867,1 52587U 22051BD  24039.93832655  .00000919  00000-0  75803-4 0  9992,2 52587  53.2170 289.6337 0001402  99.4367 260.6784 15.08844007 96892,6917.868,95.437,540.703,538.763,0.0
52587.0,STARLINK-3867,PAYLOAD,2024-02-09 01:41:57,15.08848011,0.0001422,53.2165,289.0387,95.1372,264.9782,0.00019511,2.819e-05,0.0,0 STARLINK-3867,1 52587U 22051BD  24040.07080397  .00002819  00000-0  19511-3 0  9991,2 52587  53.2165 289.0387 0001422  95.1372 264.9782 15.08848011 96980,6917.856,95.437,540.705,538.737,0.0
52587.0,STARLINK-3867,PAYLOAD,2024-02-09 16:00:26,15.08837513,0.0001457,53.216,286.3634,105.4616,254.6537,0.00011139,1.485e-05,0.0,0 STARLINK-3867,1 52587U 22051BD  24040.66697046  .00001485  00000-0  11139-3 0  9997,2 52587  53.2160 286.3634 0001457 105.4616 254.6537 15.08837513 97074,6917.888,95.438,540.761,538.745,0.0
52587.0,STARLINK-3867,PAYLOAD,2024-02-10 01:32:44,15.08846941,0.0001455,53.2158,284.5791,89.3018,270.814,0.00026624,3.953e-05,0.0,0 STARLINK-3867,1 52587U 22051BD  24041.06440878  .00003953  00000-0  26624-3 0  9998,2 52587  53.2158 284.5791 0001455  89.3018 270.8140 15.08846941 97063,6917.859,95.437,540.731,538.718,0.0
52587.0,STARLINK-3867,PAYLOAD,2024-02-10 20:37:22,15.08845103,0.0001446,53.2151,281.0109,93.0686,267.0472,0.00019113,2.756e-05,0.0,0 STARLINK-3867,1 52587U 22051BD  24041.85928981  .00002756  00000-0  19113-3 0  9996,2 52587  53.2151 281.0109 0001446  93.0686 267.0472 15.08845103 97250,6917.865,95.437,540.73,538.729,0.0
52587.0,STARLINK-3867,PAYLOAD,2024-02-10 22:12:45,15.08849575,0.0001408,53.2151,280.7135,97.0661,263.0492,0.00013517,1.864e-05,0.0,0 STARLINK-3867,1 52587U 22051BD  24041.92552753  .00001864  00000-0  13517-3 0  9995,2 52587  53.2151 280.7135 0001408  97.0661 263.0492 15.08849575 97198,6917.851,95.437,540.69,538.742,0.0
52587.0,STARLINK-3867,PAYLOAD,2024-02-11 01:23:31,15.0885429,0.0001373,53.215,280.1168,104.0537,256.0608,0.00019972,2.893e-05,0.0,0 STARLINK-3867,1 52587U 22051BD  24042.05800418  .00002893  00000-0  19972-3 0  9998,2 52587  53.2150 280.1168 0001373 104.0537 256.0608 15.08854290 97280,6917.837,95.437,540.652,538.752,0.0
52587.0,STARLINK-3867,PAYLOAD,2024-02-11 20:28:09,15.08848051,0.0001812,53.2152,276.5494,112.722,247.3964,0.00010057,1.313e-05,0.0,0 STARLINK-3867,1 52587U 22051BD  24042.85288465  .00001313  00000-0  10057-3 0  9999,2 52587  53.2152 276.5494 0001812 112.7220 247.3964 15.08848051 97406,6917.856,95.437,540.974,538.467,0.0
52587.0,STARLINK-3867,PAYLOAD,2024-02-11 22:03:32,15.08847241,0.000152,53.2154,276.2534,93.2491,266.8675,0.00012218,1.657e-05,0.0,0 STARLINK-3867,1 52587U 22051BD  24042.91912673  .00001657  00000-0  12218-3 0  9993,2 52587  53.2154 276.2534 0001520  93.2491 266.8675 15.08847241 97347,6917.858,95.437,540.775,538.672,0.0
52587.0,STARLINK-3867,PAYLOAD,2024-02-12 20:18:56,15.08839569,0.000153,53.2146,272.0862,127.815,232.298,-2.3748e-07,-2.92e-06,0.0,0 STARLINK-3867,1 52587U 22051BD  24043.84648878 -.00000292  00000-0 -23748-6 0  9998,2 52587  53.2146 272.0862 0001530 127.8150 232.2980 15.08839569 97556,6917.882,95.438,540.805,538.688,0.0
52587.0,STARLINK-3867,PAYLOAD,2024-02-13 01:05:06,15.08824993,0.0001217,53.2147,271.1995,98.7605,261.3525,-0.00023227,-3.981e-05,0.0,0 STARLINK-3867,1 52587U 22051BD  24044.04521723 -.00003981  00000-0 -23227-3 0  9997,2 52587  53.2147 271.1995 0001217  98.7605 261.3525 15.08824993 97583,6917.926,95.439,540.633,538.949,0.0
52587.0,STARLINK-3867,PAYLOAD,2024-02-13 20:09:44,15.08832393,0.0001424,53.215,267.6332,81.6932,278.4222,4.8199e-05,4.79e-06,0.0,0 STARLINK-3867,1 52587U 22051BD  24044.84010291  .00000479  00000-0  48199-4 0  9991,2 52587  53.2150 267.6332 0001424  81.6932 278.4222 15.08832393 97706,6917.904,95.438,540.754,538.784,0.0
52587.0,STARLINK-3867,PAYLOAD,2024-02-13 21:45:07,15.08839001,0.0001406,53.2154,267.3352,98.1582,261.9569,0.00015063,2.11e-05,0.0,0 STARLINK-3867,1 52587U 22051BD  24044.90633908  .00002110  00000-0  15063-3 0  9991,2 52587  53.2154 267.3352 0001406  98.1582 261.9569 15.08839001 97640,6917.883,95.438,540.721,538.776,0.0
52587.0,STARLINK-3867,PAYLOAD,2024-02-14 07:17:26,15.08843552,0.0001457,53.2152,265.5502,113.1887,246.9258,0.00038152,5.79e-05,0.0,0 STARLINK-3867,1 52587U 22051BD  24045.30377941  .00005790  00000-0  38152-3 0  9999,2 52587  53.2152 265.5502 0001457 113.1887 246.9258 15.08843552 97775,6917.87,95.437,540.742,538.727,0.0
52587.0,STARLINK-3867,PAYLOAD,2024-02-14 13:38:59,15.08846906,0.000143,53.2149,264.3598,101.0566,259.0587,0.00062475,9.671e-05,0.0,0 STARLINK-3867,1 52587U 22051BD  24045.56874094  .00009671  00000-0  62475-3 0  9995,2 52587  53.2149 264.3598 0001430 101.0566 259.0587 15.08846906 97747,6917.859,95.437,540.714,538.735,0.0
52587.0,STARLINK-3867,PAYLOAD,2024-02-14 21:35:54,15.08856824,0.0001427,53.215,262.8727,99.9939,260.1215,0.00065045,0.00010084,0.0,0 STARLINK-3867,1 52587U 22051BD  24045.89993732  .00010084  00000-0  65045-3 0  9998,2 52587  53.2150 262.8727 0001427  99.9939 260.1215 15.08856824 97797,6917.829,95.436,540.681,538.707,0.0
52587.0,STARLINK-3867,PAYLOAD,2024-02-15 07:08:12,15.08857115,0.0001351,53.2145,261.088,100.1341,259.9804,0.00026233,3.891e-05,0.0,0 STARLINK-3867,1 52587U 22051BD  24046.29737204  .00003891  00000-0  26233-3 0  9997,2 52587  53.2145 261.0880 0001351 100.1341 259.9804 15.08857115 97851,6917.828,95.436,540.628,538.758,0.0
